{"type": "FeatureCollection", "features": [ {"type": "Feature", "properties": {"norad_id": 66369, "name": "STARLINK-35795", "group": "last-30-days", "lat": 1.3456785420081332, "lon": 126.14348931950376, "alt_km": 341.42825629790605, "timestamp": "2025-12-06T05:40:08.009869+00:00", "meta": {"OBJECT_NAME": "STARLINK-35795", "OBJECT_ID": "2025-254X", "EPOCH": "2025-12-04T02:39:36.815328", "MEAN_MOTION": 15.74349696, "ECCENTRICITY": 0.00030446, "INCLINATION": 53.1567, "RA_OF_ASC_NODE": 317.7168, "ARG_OF_PERICENTER": 147.1731, "MEAN_ANOMALY": 212.9479, "EPHEMERIS_TYPE": 0, "CLASSIFICATION_TYPE": "U", "NORAD_CAT_ID": 66369, "ELEMENT_SET_NO": 999, "REV_AT_EPOCH": 432, "BSTAR": 0.0021458163, "MEAN_MOTION_DOT": 0.00328479, "MEAN_MOTION_DDOT": 0}, "tle": {"line1": "1 66369U 25254X   25338.11084277  .00328479  00000+0  21458-2 0  9993", "line2": "2 66369  53.1567 317.7168 0003044 147.1731 212.9479 15.74349696  4324"}}, "geometry": {"type": "Point", "coordinates": [126.14348931950376, 1.3456785420081332]}}, {"type": "Feature", "properties": {"norad_id": 66370, "name": "STARLINK-35824", "group": "last-30-days", "lat": 2.43968736913486, "lon": 125.32704246675111, "alt_km": 348.78995173737076, "timestamp": "2025-12-06T05:40:08.009879+00:00", "meta": {"OBJECT_NAME": "STARLINK-35824", "OBJECT_ID": "2025-254Y", "EPOCH": "2025-12-05T07:35:12.725664", "MEAN_MOTION": 15.74416564, "ECCENTRICITY": 2.907e-05, "INCLINATION": 53.1572, "RA_OF_ASC_NODE": 311.7243, "ARG_OF_PERICENTER": 144.1395, "MEAN_ANOMALY": 215.9645, "EPHEMERIS_TYPE": 0, "CLASSIFICATION_TYPE": "U", "NORAD_CAT_ID": 66370, "ELEMENT_SET_NO": 999, "REV_AT_EPOCH": 451, "BSTAR": -0.0027617074, "MEAN_MOTION_DOT": -0.00390695, "MEAN_MOTION_DDOT": 0}, "tle": {"line1": "1 66370U 25254Y   25339.31611951 -.00390695  00000+0 -27617-2 0  9997", "line2": "2 66370  53.1572 311.7243 0000290 144.1395 215.9645 15.74416564  4511"}}, "geometry": {"type": "Point", "coordinates": [125.32704246675111, 2.43968736913486]}}, {"type": "Feature", "properties": {"norad_id": 66371, "name": "STARLINK-35804", "group": "last-30-days", "lat": 0.11119348343974005, "lon": 127.06666537113539, "alt_km": 346.83200957416284, "timestamp": "2025-12-06T05:40:08.009890+00:00", "meta": {"OBJECT_NAME": "STARLINK-35804", "OBJECT_ID": "2025-254Z", "EPOCH": "2025-12-05T00:00:02.999808", "MEAN_MOTION": 15.74124594, "ECCENTRICITY": 0.00011956, "INCLINATION": 53.158, "RA_OF_ASC_NODE": 313.2878, "ARG_OF_PERICENTER": 90.6735, "MEAN_ANOMALY": 278.9415, "EPHEMERIS_TYPE": 0, "CLASSIFICATION_TYPE": "U", "NORAD_CAT_ID": 66371, "ELEMENT_SET_NO": 999, "REV_AT_EPOCH": 567, "BSTAR": 0.0010837698, "MEAN_MOTION_DOT": 0.00160705, "MEAN_MOTION_DDOT": 0}, "tle": {"line1": "1 66371U 25254Z   25339.00003472  .00160705  00000+0  10838-2 0  9999", "line2": "2 66371  53.1580 313.2878 0001195  90.6735 278.9415 15.74124594  5671"}}, "geometry": {"type": "Point", "coordinates": [127.06666537113539, 0.11119348343974005]}}, {"type": "Feature", "properties": {"norad_id": 66372, "name": "STARLINK-35821", "group": "last-30-days", "lat": -3.7086177152941047, "lon": 129.9273758719564, "alt_km": 343.25807977582645, "timestamp": "2025-12-06T05:40:08.009900+00:00", "meta": {"OBJECT_NAME": "STARLINK-35821", "OBJECT_ID": "2025-254AA", "EPOCH": "2025-12-04T10:15:15.064416", "MEAN_MOTION": 15.7441561, "ECCENTRICITY": 0.0001567, "INCLINATION": 53.1569, "RA_OF_ASC_NODE": 316.1358, "ARG_OF_PERICENTER": 64.6576, "MEAN_ANOMALY": 295.4606, "EPHEMERIS_TYPE": 0, "CLASSIFICATION_TYPE": "U", "NORAD_CAT_ID": 66372, "ELEMENT_SET_NO": 999, "REV_AT_EPOCH": 437, "BSTAR": 0.0030875, "MEAN_MOTION_DOT": 0.00483155, "MEAN_MOTION_DDOT": 0}, "tle": {"line1": "1 66372U 25254AA  25338.42725769  .00483155  00000+0  30875-2 0  9995", "line2": "2 66372  53.1569 316.1358 0001567  64.6576 295.4606 15.74415610  4375"}}, "geometry": {"type": "Point", "coordinates": [129.9273758719564, -3.7086177152941047]}}, {"type": "Feature", "properties": {"norad_id": 66373, "name": "STARLINK-35809", "group": "last-30-days", "lat": -2.0293388000314314, "lon": 128.66607362042524, "alt_km": 346.2835917519251, "timestamp": "2025-12-06T05:40:08.009910+00:00", "meta": {"OBJECT_NAME": "STARLINK-35809", "OBJECT_ID": "2025-254AB", "EPOCH": "2025-12-04T23:57:08.527104", "MEAN_MOTION": 15.74162628, "ECCENTRICITY": 0.00011507, "INCLINATION": 53.1573, "RA_OF_ASC_NODE": 313.293, "ARG_OF_PERICENTER": 93.3239, "MEAN_ANOMALY": 266.7912, "EPHEMERIS_TYPE": 0, "CLASSIFICATION_TYPE": "U", "NORAD_CAT_ID": 66373, "ELEMENT_SET_NO": 999, "REV_AT_EPOCH": 446, "BSTAR": 0.0017555622, "MEAN_MOTION_DOT": 0.00264408, "MEAN_MOTION_DDOT": 0}, "tle": {"line1": "1 66373U 25254AB  25338.99801536  .00264408  00000+0  17556-2 0  9994", "line2": "2 66373  53.1573 313.2930 0001150  93.3239 266.7912 15.74162628  4467"}}, "geometry": {"type": "Point", "coordinates": [128.66607362042524, -2.0293388000314314]}}, {"type": "Feature", "properties": {"norad_id": 66374, "name": "STARLINK-35831", "group": "last-30-days", "lat": -3.5050916839706057, "lon": 129.77400935670488, "alt_km": 346.2680966216767, "timestamp": "2025-12-06T05:40:08.009922+00:00", "meta": {"OBJECT_NAME": "STARLINK-35831", "OBJECT_ID": "2025-254AC", "EPOCH": "2025-12-05T04:30:56.234304", "MEAN_MOTION": 15.74184186, "ECCENTRICITY": 9.866e-05, "INCLINATION": 53.1576, "RA_OF_ASC_NODE": 312.3471, "ARG_OF_PERICENTER": 94.6782, "MEAN_ANOMALY": 265.4351, "EPHEMERIS_TYPE": 0, "CLASSIFICATION_TYPE": "U", "NORAD_CAT_ID": 66374, "ELEMENT_SET_NO": 999, "REV_AT_EPOCH": 449, "BSTAR": 0.0022573018, "MEAN_MOTION_DOT": 0.00343742, "MEAN_MOTION_DDOT": 0}, "tle": {"line1": "1 66374U 25254AC  25339.18815086  .00343742  00000+0  22573-2 0  9996", "line2": "2 66374  53.1576 312.3471 0000986  94.6782 265.4351 15.74184186  4493"}}, "geometry": {"type": "Point", "coordinates": [129.77400935670488, -3.5050916839706057]}}, {"type": "Feature", "properties": {"norad_id": 66375, "name": "STARLINK-35826", "group": "last-30-days", "lat": -6.235548561323299, "lon": 131.83314358196958, "alt_km": 343.5639120545038, "timestamp": "2025-12-06T05:40:08.009933+00:00", "meta": {"OBJECT_NAME": "STARLINK-35826", "OBJECT_ID": "2025-254AD", "EPOCH": "2025-12-05T01:27:35.768160", "MEAN_MOTION": 15.74369654, "ECCENTRICITY": 0.00027637, "INCLINATION": 53.1573, "RA_OF_ASC_NODE": 312.9744, "ARG_OF_PERICENTER": 186.5703, "MEAN_ANOMALY": 173.5282, "EPHEMERIS_TYPE": 0, "CLASSIFICATION_TYPE": "U", "NORAD_CAT_ID": 66375, "ELEMENT_SET_NO": 999, "REV_AT_EPOCH": 447, "BSTAR": 0.002728124, "MEAN_MOTION_DOT": 0.00422905, "MEAN_MOTION_DDOT": 0}, "tle": {"line1": "1 66375U 25254AD  25339.06083065  .00422905  00000+0  27281-2 0  9998", "line2": "2 66375  53.1573 312.9744 0002763 186.5703 173.5282 15.74369654  4474"}}, "geometry": {"type": "Point", "coordinates": [131.83314358196958, -6.235548561323299]}}, {"type": "Feature", "properties": {"norad_id": 66376, "name": "SHIYAN-32 01", "group": "last-30-days", "lat": 25.69426662121376, "lon": 7.719129841819114, "alt_km": 441.1487243232077, "timestamp": "2025-12-06T05:40:08.009943+00:00", "meta": {"OBJECT_NAME": "SHIYAN-32 01", "OBJECT_ID": "2025-255A", "EPOCH": "2025-12-05T18:08:58.191648", "MEAN_MOTION": 15.42436726, "ECCENTRICITY": 0.0013509, "INCLINATION": 52.9952, "RA_OF_ASC_NODE": 211.2776, "ARG_OF_PERICENTER": 20.546, "MEAN_ANOMALY": 339.6085, "EPHEMERIS_TYPE": 0, "CLASSIFICATION_TYPE": "U", "NORAD_CAT_ID": 66376, "ELEMENT_SET_NO": 999, "REV_AT_EPOCH": 427, "BSTAR": 0.00061221, "MEAN_MOTION_DOT": 0.0002665, "MEAN_MOTION_DDOT": 0}, "tle": {"line1": "1 66376U 25255A   25339.75622907  .00026650  00000+0  61221-3 0  9990", "line2": "2 66376  52.9952 211.2776 0013509  20.5460 339.6085 15.42436726  4270"}}, "geometry": {"type": "Point", "coordinates": [7.719129841819114, 25.69426662121376]}}, {"type": "Feature", "properties": {"norad_id": 66377, "name": "CZ-11 DEB", "group": "last-30-days", "lat": -35.46808537973208, "lon": 61.34108966010254, "alt_km": 447.1378767251126, "timestamp": "2025-12-06T05:40:08.009954+00:00", "meta": {"OBJECT_NAME": "CZ-11 DEB", "OBJECT_ID": "2025-255B", "EPOCH": "2025-12-05T03:49:57.444960", "MEAN_MOTION": 15.43766179, "ECCENTRICITY": 0.00138166, "INCLINATION": 52.9949, "RA_OF_ASC_NODE": 213.9635, "ARG_OF_PERICENTER": 16.3255, "MEAN_ANOMALY": 343.8192, "EPHEMERIS_TYPE": 0, "CLASSIFICATION_TYPE": "U", "NORAD_CAT_ID": 66377, "ELEMENT_SET_NO": 999, "REV_AT_EPOCH": 404, "BSTAR": 0.0013050272, "MEAN_MOTION_DOT": 0.00060195, "MEAN_MOTION_DDOT": 0}, "tle": {"line1": "1 66377U 25255B   25339.15969265  .00060195  00000+0  13050-2 0  9994", "line2": "2 66377  52.9949 213.9635 0013816  16.3255 343.8192 15.43766179  4046"}}, "geometry": {"type": "Point", "coordinates": [61.34108966010254, -35.46808537973208]}}, {"type": "Feature", "properties": {"norad_id": 66378, "name": "SHIYAN-32 02", "group": "last-30-days", "lat": -52.04117270720031, "lon": 103.9818696074028, "alt_km": 441.0735867244475, "timestamp": "2025-12-06T05:40:08.009964+00:00", "meta": {"OBJECT_NAME": "SHIYAN-32 02", "OBJECT_ID": "2025-255C", "EPOCH": "2025-12-05T17:40:19.394112", "MEAN_MOTION": 15.44450072, "ECCENTRICITY": 0.0012207, "INCLINATION": 52.9929, "RA_OF_ASC_NODE": 211.1536, "ARG_OF_PERICENTER": 14.422, "MEAN_ANOMALY": 345.7131, "EPHEMERIS_TYPE": 0, "CLASSIFICATION_TYPE": "U", "NORAD_CAT_ID": 66378, "ELEMENT_SET_NO": 999, "REV_AT_EPOCH": 413, "BSTAR": 0.0014477, "MEAN_MOTION_DOT": 0.00068417, "MEAN_MOTION_DDOT": 0}, "tle": {"line1": "1 66378U 25255C   25339.73633558  .00068417  00000+0  14477-2 0  9991", "line2": "2 66378  52.9929 211.1536 0012207  14.4220 345.7131 15.44450072  4136"}}, "geometry": {"type": "Point", "coordinates": [103.9818696074028, -52.04117270720031]}}]}